ONEWEB-0054             
1 45158U 20008AD  26178.08575007  .00001503  00000+0  42682-2 0  9991
2 45158  87.8835  34.2961 0001896  85.2331 274.9013 13.10362200309326
ONEWEB-0056             
1 45159U 20008AE  26178.13309814  .00000595  00000+0  16680-2 0  9998
2 45159  87.8831  34.2798 0002134  88.5105 271.6267 13.10375739309485
ONEWEB-0057             
1 45160U 20008AF  26178.15033870 -.00000139  00000+0 -43517-3 0  9994
2 45160  87.8825  34.2885 0001958  69.2407 290.8930 13.10374280309650
ONEWEB-0058             
1 45161U 20008AG  26178.13715579  .00000530  00000+0  14812-2 0  9994
2 45161  87.8818  34.2964 0001676  90.5751 269.5568 13.10371515309723
ONEWEB-0059             
1 45162U 20008AH  26178.13337760  .00000632  00000+0  17755-2 0  9999
2 45162  87.8822  34.2961 0001690  76.9038 283.2278 13.10368496309622
ONEWEB-0062             
1 45163U 20008AJ  26178.15685699 -.00000450  00000+0 -13259-2 0  9994
2 45163  87.8829  34.2799 0001797  95.8401 264.2931 13.10371030309499
ONEWEB-0065             
1 45164U 20008AK  26178.11445661  .00001123  00000+0  31800-2 0  9992
2 45164  87.8833  34.2962 0002014  77.7760 282.3593 13.10372559309185
ONEWEB-0066             
1 45424U 20020A   26178.06527227  .00000004  00000+0 -25772-4 0  9999
2 45424  87.8879  19.1044 0001640  86.0298 274.1017 13.11418713303975
ONEWEB-0067             
1 45425U 20020B   26178.10310139  .00000120  00000+0  30382-3 0  9997
2 45425  87.8900  19.0205 0001888  82.5333 277.6010 13.11422931304030
ONEWEB-0080             
1 45426U 20020C   26178.10271668  .00000110  00000+0  27475-3 0  9999
2 45426  87.8891  19.0942 0001780  97.5760 262.5570 13.11414143304006
ONEWEB-0090             
1 45427U 20020D   26178.05523693 -.00000449  00000+0 -13019-2 0  9997
2 45427  87.8892  19.1081 0001835  89.8848 270.2490 13.11417590303965
ONEWEB-0061             
1 45428U 20020E   26178.08718307  .00000595  00000+0  16436-2 0  9995
2 45428  87.8889  19.0860 0001781  87.8682 272.2650 13.11416580303924
ONEWEB-0081             
1 45429U 20020F   26178.06866564  .00000125  00000+0  31827-3 0  9994
2 45429  87.8886  19.0997 0001740  81.8666 278.2659 13.11418690304036
ONEWEB-0069             
1 45430U 20020G   26178.07050082  .00000178  00000+0  46691-3 0  9990
2 45430  87.8885  19.1024 0001815  85.4109 274.7226 13.11418442303961
ONEWEB-0031             
1 45431U 20020H   26178.10596434 -.00000023  00000+0 -99776-4 0  9995
2 45431  87.8876  19.0998 0001837  93.9281 266.2057 13.11414362303954
ONEWEB-0027             
1 45432U 20020J   26178.05692655 -.00000019  00000+0 -82089-4 0  9996
2 45432  87.9134   3.9016 0002209 101.3378 258.8001 13.17652255307659
ONEWEB-0064             
1 45433U 20020K   26178.10427331  .00000117  00000+0  29514-3 0  9990
2 45433  87.8880  19.0923 0001904  92.6516 267.4830 13.11414977303988
ONEWEB-0018             
1 45434U 20020L   26178.06003690 -.00000513  00000+0 -14830-2 0  9990
2 45434  87.8885  19.1007 0001438  88.7509 271.3783 13.11418955303923
ONEWEB-0083             
1 45435U 20020M   26178.05014825 -.00000481  00000+0 -13920-2 0  9995
2 45435  87.8889  19.0967 0001758  89.2026 270.9303 13.11417312303960
ONEWEB-0095             
1 45436U 20020N   26178.11795947 -.00000435  00000+0 -12643-2 0  9994
2 45436  87.8888  19.0920 0002517  87.0766 273.0650 13.11414934303977
ONEWEB-0092             
1 45437U 20020P   26178.07205205  .00000183  00000+0  48040-3 0  9992
2 45437  87.8890  19.0923 0002055  82.2394 277.8967 13.11413715304087
ONEWEB-0085             
1 45438U 20020Q   26178.04987267 -.00000109  00000+0 -34294-3 0  9991
2 45438  87.8884  19.1030 0002093  84.5133 275.6233 13.11418592303965
ONEWEB-0096             
1 45439U 20020R   26178.05169380 -.00000484  00000+0 -14029-2 0  9990
2 45439  87.8888  19.0991 0001978  88.2243 271.9111 13.11415921303955
ONEWEB-0037             
1 45440U 20020S   26178.08127294  .00000444  00000+0  12095-2 0  9998
2 45440  87.8901  19.0660 0001924  86.2744 273.8605 13.11914047303997
ONEWEB-0042             
1 45441U 20020T   26178.04139837 -.00000461  00000+0 -13373-2 0  9992
2 45441  87.8887  19.0973 0001788  84.5787 275.5545 13.11416226303958
ONEWEB-0098             
1 45442U 20020U   26178.11358844 -.00000346  00000+0 -10123-2 0  9994
2 45442  87.8884  19.0926 0001818  90.2531 269.8806 13.11416478303943
ONEWEB-0055             
1 45443U 20020V   26178.09227839  .00000533  00000+0  14685-2 0  9994
2 45443  87.8888  19.0953 0001810  89.8630 270.2705 13.11417367303913
ONEWEB-0093             
1 45444U 20020W   26178.07221909 -.00002155  00000+0 -61197-2 0  9999
2 45444  87.8891  19.0925 0001932  73.3425 286.7914 13.11398535303977
ONEWEB-0029             
1 45445U 20020X   26178.02302529  .00000260  00000+0  69754-3 0  9994
2 45445  87.8878  19.1106 0001654  82.2750 277.8566 13.11414145303943
ONEWEB-0068             
1 45446U 20020Y   26178.07192590  .00000183  00000+0  48131-3 0  9995
2 45446  87.8889  19.0963 0001699  83.4325 276.6996 13.11418402303894
ONEWEB-0046             
1 45447U 20020Z   26178.06357801 -.00000122  00000+0 -37873-3 0  9999
2 45447  87.8881  19.1033 0001884  78.7945 281.3395 13.11418144303908
