OBJECT_NAME,OBJECT_ID,EPOCH,MEAN_MOTION,ECCENTRICITY,INCLINATION,RA_OF_ASC_NODE,ARG_OF_PERICENTER,MEAN_ANOMALY,EPHEMERIS_TYPE,CLASSIFICATION_TYPE,NORAD_CAT_ID,ELEMENT_SET_NO,REV_AT_EPOCH,BSTAR,MEAN_MOTION_DOT,MEAN_MOTION_DDOT
ONEWEB-0054,2020-008AD,2026-06-27T02:03:28.806048,13.10362200,.0001896,87.8835,34.2961,85.2331,274.9013,0,U,45158,999,30932,.42682E-2,.1503E-4,0
ONEWEB-0056,2020-008AE,2026-06-27T03:11:39.679296,13.10375739,.0002134,87.8831,34.2798,88.5105,271.6267,0,U,45159,999,30948,.1668E-2,.595E-5,0
ONEWEB-0057,2020-008AF,2026-06-27T03:36:29.263680,13.10374280,.0001958,87.8825,34.2885,69.2407,290.8930,0,U,45160,999,30965,-.43517E-3,-.139E-5,0
ONEWEB-0058,2020-008AG,2026-06-27T03:17:30.260256,13.10371515,.0001676,87.8818,34.2964,90.5751,269.5568,0,U,45161,999,30972,.14812E-2,.53E-5,0
ONEWEB-0059,2020-008AH,2026-06-27T03:12:03.824640,13.10368496,.000169,87.8822,34.2961,76.9038,283.2278,0,U,45162,999,30962,.17755E-2,.632E-5,0
ONEWEB-0062,2020-008AJ,2026-06-27T03:45:52.443936,13.10371030,.0001797,87.8829,34.2799,95.8401,264.2931,0,U,45163,999,30949,-.13259E-2,-.45E-5,0
ONEWEB-0065,2020-008AK,2026-06-27T02:44:49.051104,13.10372559,.0002014,87.8833,34.2962,77.7760,282.3593,0,U,45164,999,30918,.318E-2,.1123E-4,0
ONEWEB-0066,2020-020A,2026-06-27T01:33:59.524128,13.11418713,.000164,87.8879,19.1044,86.0298,274.1017,0,U,45424,999,30397,-.25772E-4,.4E-7,0
ONEWEB-0067,2020-020B,2026-06-27T02:28:27.960096,13.11422931,.0001888,87.8900,19.0205,82.5333,277.6010,0,U,45425,999,30403,.30382E-3,.12E-5,0
ONEWEB-0080,2020-020C,2026-06-27T02:27:54.721152,13.11414143,.000178,87.8891,19.0942,97.5760,262.5570,0,U,45426,999,30400,.27475E-3,.11E-5,0
ONEWEB-0090,2020-020D,2026-06-27T01:19:32.470752,13.11417590,.0001835,87.8892,19.1081,89.8848,270.2490,0,U,45427,999,30396,-.13019E-2,-.449E-5,0
ONEWEB-0061,2020-020E,2026-06-27T02:05:32.617248,13.11416580,.0001781,87.8889,19.0860,87.8682,272.2650,0,U,45428,999,30392,.16436E-2,.595E-5,0
ONEWEB-0081,2020-020F,2026-06-27T01:38:52.711296,13.11418690,.000174,87.8886,19.0997,81.8666,278.2659,0,U,45429,999,30403,.31827E-3,.125E-5,0
ONEWEB-0069,2020-020G,2026-06-27T01:41:31.270848,13.11418442,.0001815,87.8885,19.1024,85.4109,274.7226,0,U,45430,999,30396,.46691E-3,.178E-5,0
ONEWEB-0031,2020-020H,2026-06-27T02:32:35.318976,13.11414362,.0001837,87.8876,19.0998,93.9281,266.2057,0,U,45431,999,30395,-.99776E-4,-.23E-6,0
ONEWEB-0027,2020-020J,2026-06-27T01:21:58.453920,13.17652255,.0002209,87.9134,3.9016,101.3378,258.8001,0,U,45432,999,30765,-.82089E-4,-.19E-6,0
ONEWEB-0064,2020-020K,2026-06-27T02:30:09.213984,13.11414977,.0001904,87.8880,19.0923,92.6516,267.4830,0,U,45433,999,30398,.29514E-3,.117E-5,0
ONEWEB-0018,2020-020L,2026-06-27T01:26:27.188160,13.11418955,.0001438,87.8885,19.1007,88.7509,271.3783,0,U,45434,999,30392,-.1483E-2,-.513E-5,0
ONEWEB-0083,2020-020M,2026-06-27T01:12:12.808800,13.11417312,.0001758,87.8889,19.0967,89.2026,270.9303,0,U,45435,999,30396,-.1392E-2,-.481E-5,0
ONEWEB-0095,2020-020N,2026-06-27T02:49:51.698208,13.11414934,.0002517,87.8888,19.0920,87.0766,273.0650,0,U,45436,999,30397,-.12643E-2,-.435E-5,0
ONEWEB-0092,2020-020P,2026-06-27T01:43:45.297120,13.11413715,.0002055,87.8890,19.0923,82.2394,277.8967,0,U,45437,999,30408,.4804E-3,.183E-5,0
ONEWEB-0085,2020-020Q,2026-06-27T01:11:48.998688,13.11418592,.0002093,87.8884,19.1030,84.5133,275.6233,0,U,45438,999,30396,-.34294E-3,-.109E-5,0
ONEWEB-0096,2020-020R,2026-06-27T01:14:26.344320,13.11415921,.0001978,87.8888,19.0991,88.2243,271.9111,0,U,45439,999,30395,-.14029E-2,-.484E-5,0
ONEWEB-0037,2020-020S,2026-06-27T01:57:01.982016,13.11914047,.0001924,87.8901,19.0660,86.2744,273.8605,0,U,45440,999,30399,.12095E-2,.444E-5,0
ONEWEB-0042,2020-020T,2026-06-27T00:59:36.819168,13.11416226,.0001788,87.8887,19.0973,84.5787,275.5545,0,U,45441,999,30395,-.13373E-2,-.461E-5,0
ONEWEB-0098,2020-020U,2026-06-27T02:43:34.041216,13.11416478,.0001818,87.8884,19.0926,90.2531,269.8806,0,U,45442,999,30394,-.10123E-2,-.346E-5,0
ONEWEB-0055,2020-020V,2026-06-27T02:12:52.852896,13.11417367,.000181,87.8888,19.0953,89.8630,270.2705,0,U,45443,999,30391,.14685E-2,.533E-5,0
ONEWEB-0093,2020-020W,2026-06-27T01:43:59.729376,13.11398535,.0001932,87.8891,19.0925,73.3425,286.7914,0,U,45444,999,30397,-.61197E-2,-.2155E-4,0
ONEWEB-0029,2020-020X,2026-06-27T00:33:09.385056,13.11414145,.0001654,87.8878,19.1106,82.2750,277.8566,0,U,45445,999,30394,.69754E-3,.26E-5,0
ONEWEB-0068,2020-020Y,2026-06-27T01:43:34.397760,13.11418402,.0001699,87.8889,19.0963,83.4325,276.6996,0,U,45446,999,30389,.48131E-3,.183E-5,0
ONEWEB-0046,2020-020Z,2026-06-27T01:31:33.140064,13.11418144,.0001884,87.8881,19.1033,78.7945,281.3395,0,U,45447,999,30390,-.37873E-3,-.122E-5,0
